{"type": "FeatureCollection", "features": [{"type": "Feature", "properties": {"norad_id": 22490, "name": "SCD 1", "group": "resource", "lat": 19.788139397534973, "lon": 21.853464220952496, "alt_km": 747.1225277346011, "timestamp": "2025-12-16T23:36:35.841209+00:00", "meta": {"OBJECT_NAME": "SCD 1", "OBJECT_ID": "1993-009B", "EPOCH": "2025-12-16T01:36:03.320640", "MEAN_MOTION": 14.46001456, "ECCENTRICITY": 0.00419345, "INCLINATION": 24.9691, "RA_OF_ASC_NODE": 258.1501, "ARG_OF_PERICENTER": 0.3121, "MEAN_ANOMALY": 22.3996, "EPHEMERIS_TYPE": 0, "CLASSIFICATION_TYPE": "U", "NORAD_CAT_ID": 22490, "ELEMENT_SET_NO": 999, "REV_AT_EPOCH": 73458, "BSTAR": 8.8016475e-05, "MEAN_MOTION_DOT": 5.07e-06, "MEAN_MOTION_DDOT": 0}, "tle": {"line1": "1 22490U 93009B   25350.06670510  .00000507  00000+0  88016-4 0  9996", "line2": "2 22490  24.9691 258.1501 0041934   0.3121  22.3996 14.46001456734589"}}, "geometry": {"type": "Point", "coordinates": [21.853464220952496, 19.788139397534973]}}, {"type": "Feature", "properties": {"norad_id": 25397, "name": "TECHSAT 1B (GO-32)", "group": "resource", "lat": -40.36454662299027, "lon": -17.970945177721628, "alt_km": 817.0703696217288, "timestamp": "2025-12-16T23:36:35.841237+00:00", "meta": {"OBJECT_NAME": "TECHSAT 1B (GO-32)", "OBJECT_ID": "1998-043D", "EPOCH": "2025-12-16T05:15:25.621920", "MEAN_MOTION": 14.2437812, "ECCENTRICITY": 0.00019614, "INCLINATION": 98.9923, "RA_OF_ASC_NODE": 333.5115, "ARG_OF_PERICENTER": 51.801, "MEAN_ANOMALY": 308.3345, "EPHEMERIS_TYPE": 0, "CLASSIFICATION_TYPE": "U", "NORAD_CAT_ID": 25397, "ELEMENT_SET_NO": 999, "REV_AT_EPOCH": 42528, "BSTAR": 6.1187338e-05, "MEAN_MOTION_DOT": 9.5e-07, "MEAN_MOTION_DDOT": 0}, "tle": {"line1": "1 25397U 98043D   25350.21904655  .00000095  00000+0  61187-4 0  9997", "line2": "2 25397  98.9923 333.5115 0001961  51.8010 308.3345 14.24378120425280"}}, "geometry": {"type": "Point", "coordinates": [-17.970945177721628, -40.36454662299027]}}, {"type": "Feature", "properties": {"norad_id": 25504, "name": "SCD 2", "group": "resource", "lat": 12.370474219544151, "lon": -92.35551030148727, "alt_km": 747.3294915589522, "timestamp": "2025-12-16T23:36:35.841267+00:00", "meta": {"OBJECT_NAME": "SCD 2", "OBJECT_ID": "1998-060A", "EPOCH": "2025-12-16T02:07:12.836064", "MEAN_MOTION": 14.45425183, "ECCENTRICITY": 0.00167853, "INCLINATION": 24.9939, "RA_OF_ASC_NODE": 121.2476, "ARG_OF_PERICENTER": 349.1746, "MEAN_ANOMALY": 171.4767, "EPHEMERIS_TYPE": 0, "CLASSIFICATION_TYPE": "U", "NORAD_CAT_ID": 25504, "ELEMENT_SET_NO": 999, "REV_AT_EPOCH": 43380, "BSTAR": 6.7097144e-05, "MEAN_MOTION_DOT": 4.22e-06, "MEAN_MOTION_DDOT": 0}, "tle": {"line1": "1 25504U 98060A   25350.08834301  .00000422  00000+0  67097-4 0  9991", "line2": "2 25504  24.9939 121.2476 0016785 349.1746 171.4767 14.45425183433806"}}, "geometry": {"type": "Point", "coordinates": [-92.35551030148727, 12.370474219544151]}}, {"type": "Feature", "properties": {"norad_id": 25757, "name": "DLR-TUBSAT", "group": "resource", "lat": -63.12823198274628, "lon": 138.13157826059964, "alt_km": 720.8342602238672, "timestamp": "2025-12-16T23:36:35.841282+00:00", "meta": {"OBJECT_NAME": "DLR-TUBSAT", "OBJECT_ID": "1999-029B", "EPOCH": "2025-12-15T23:20:25.315008", "MEAN_MOTION": 14.52358976, "ECCENTRICITY": 0.00141051, "INCLINATION": 98.6565, "RA_OF_ASC_NODE": 334.5861, "ARG_OF_PERICENTER": 182.7828, "MEAN_ANOMALY": 177.329, "EPHEMERIS_TYPE": 0, "CLASSIFICATION_TYPE": "U", "NORAD_CAT_ID": 25757, "ELEMENT_SET_NO": 999, "REV_AT_EPOCH": 40665, "BSTAR": 4.4282593e-05, "MEAN_MOTION_DOT": 1.32e-06, "MEAN_MOTION_DDOT": 0}, "tle": {"line1": "1 25757U 99029B   25349.97251522  .00000132  00000+0  44283-4 0  9991", "line2": "2 25757  98.6565 334.5861 0014105 182.7828 177.3290 14.52358976406654"}}, "geometry": {"type": "Point", "coordinates": [138.13157826059964, -63.12823198274628]}}, {"type": "Feature", "properties": {"norad_id": 25994, "name": "TERRA", "group": "resource", "lat": 75.26607806002797, "lon": 10.30038602701159, "alt_km": 680.579148105041, "timestamp": "2025-12-16T23:36:35.841294+00:00", "meta": {"OBJECT_NAME": "TERRA", "OBJECT_ID": "1999-068A", "EPOCH": "2025-12-16T07:08:50.257824", "MEAN_MOTION": 14.60906024, "ECCENTRICITY": 0.0003593, "INCLINATION": 97.9746, "RA_OF_ASC_NODE": 41.8517, "ARG_OF_PERICENTER": 87.5298, "MEAN_ANOMALY": 344.6664, "EPHEMERIS_TYPE": 0, "CLASSIFICATION_TYPE": "U", "NORAD_CAT_ID": 25994, "ELEMENT_SET_NO": 999, "REV_AT_EPOCH": 38290, "BSTAR": 0.00010682686, "MEAN_MOTION_DOT": 4.78e-06, "MEAN_MOTION_DDOT": 0}, "tle": {"line1": "1 25994U 99068A   25350.29780391  .00000478  00000+0  10683-3 0  9994", "line2": "2 25994  97.9746  41.8517 0003593  87.5298 344.6664 14.60906024382905"}}, "geometry": {"type": "Point", "coordinates": [10.30038602701159, 75.26607806002797]}}, {"type": "Feature", "properties": {"norad_id": 27004, "name": "MAROC-TUBSAT", "group": "resource", "lat": 55.070916625389096, "lon": -6.182002949878013, "alt_km": 1001.4627008029665, "timestamp": "2025-12-16T23:36:35.841306+00:00", "meta": {"OBJECT_NAME": "MAROC-TUBSAT", "OBJECT_ID": "2001-056D", "EPOCH": "2025-12-16T07:36:13.152960", "MEAN_MOTION": 13.70253093, "ECCENTRICITY": 0.00191257, "INCLINATION": 99.7912, "RA_OF_ASC_NODE": 158.8244, "ARG_OF_PERICENTER": 250.5989, "MEAN_ANOMALY": 185.023, "EPHEMERIS_TYPE": 0, "CLASSIFICATION_TYPE": "U", "NORAD_CAT_ID": 27004, "ELEMENT_SET_NO": 999, "REV_AT_EPOCH": 20114, "BSTAR": 3.6042039e-05, "MEAN_MOTION_DOT": -1.5e-07, "MEAN_MOTION_DDOT": 0}, "tle": {"line1": "1 27004U 01056D   25350.31681890 -.00000015  00000+0  36042-4 0  9991", "line2": "2 27004  99.7912 158.8244 0019125 250.5989 185.0230 13.70253093201140"}}, "geometry": {"type": "Point", "coordinates": [-6.182002949878013, 55.070916625389096]}}, {"type": "Feature", "properties": {"norad_id": 27424, "name": "AQUA", "group": "resource", "lat": -32.99262549240567, "lon": -42.56052098507345, "alt_km": 694.1545519401643, "timestamp": "2025-12-16T23:36:35.841318+00:00", "meta": {"OBJECT_NAME": "AQUA", "OBJECT_ID": "2002-022A", "EPOCH": "2025-12-16T09:30:18.465120", "MEAN_MOTION": 14.6181792, "ECCENTRICITY": 0.00012308, "INCLINATION": 98.4041, "RA_OF_ASC_NODE": 311.3345, "ARG_OF_PERICENTER": 113.8376, "MEAN_ANOMALY": 1.9014, "EPHEMERIS_TYPE": 0, "CLASSIFICATION_TYPE": "U", "NORAD_CAT_ID": 27424, "ELEMENT_SET_NO": 999, "REV_AT_EPOCH": 25656, "BSTAR": 0.00020805889, "MEAN_MOTION_DOT": 9.9e-06, "MEAN_MOTION_DDOT": 0}, "tle": {"line1": "1 27424U 02022A   25350.39604705  .00000990  00000+0  20806-3 0  9990", "line2": "2 27424  98.4041 311.3345 0001230 113.8376   1.9014 14.61817920256560"}}, "geometry": {"type": "Point", "coordinates": [-42.56052098507345, -32.99262549240567]}}, {"type": "Feature", "properties": {"norad_id": 28051, "name": "IRS-P6 (RESOURCESAT-1)", "group": "resource", "lat": 21.40609983570547, "lon": -145.55777988858054, "alt_km": 725.9358796312354, "timestamp": "2025-12-16T23:36:35.841329+00:00", "meta": {"OBJECT_NAME": "IRS-P6 (RESOURCESAT-1)", "OBJECT_ID": "2003-046A", "EPOCH": "2025-12-16T09:32:52.738368", "MEAN_MOTION": 14.36076302, "ECCENTRICITY": 0.00643558, "INCLINATION": 98.2181, "RA_OF_ASC_NODE": 30.6357, "ARG_OF_PERICENTER": 169.7366, "MEAN_ANOMALY": 201.2883, "EPHEMERIS_TYPE": 0, "CLASSIFICATION_TYPE": "U", "NORAD_CAT_ID": 28051, "ELEMENT_SET_NO": 999, "REV_AT_EPOCH": 15429, "BSTAR": 2.7708275e-05, "MEAN_MOTION_DOT": 4.2e-07, "MEAN_MOTION_DDOT": 0}, "tle": {"line1": "1 28051U 03046A   25350.39783262  .00000042  00000+0  27708-4 0  9997", "line2": "2 28051  98.2181  30.6357 0064355 169.7366 201.2883 14.36076302154299"}}, "geometry": {"type": "Point", "coordinates": [-145.55777988858054, 21.40609983570547]}}, {"type": "Feature", "properties": {"norad_id": 28220, "name": "SHIYAN-1 (SY-1)", "group": "resource", "lat": -2.6090485038945967, "lon": 53.135320314528954, "alt_km": 481.96185647401126, "timestamp": "2025-12-16T23:36:35.841340+00:00", "meta": {"OBJECT_NAME": "SHIYAN-1 (SY-1)", "OBJECT_ID": "2004-012A", "EPOCH": "2025-12-16T03:11:34.433088", "MEAN_MOTION": 15.28236562, "ECCENTRICITY": 0.0005439, "INCLINATION": 97.894, "RA_OF_ASC_NODE": 51.872, "ARG_OF_PERICENTER": 312.297, "MEAN_ANOMALY": 47.7806, "EPHEMERIS_TYPE": 0, "CLASSIFICATION_TYPE": "U", "NORAD_CAT_ID": 28220, "ELEMENT_SET_NO": 999, "REV_AT_EPOCH": 18308, "BSTAR": 0.00037920386, "MEAN_MOTION_DOT": 0.00010359, "MEAN_MOTION_DDOT": 0}, "tle": {"line1": "1 28220U 04012A   25350.13303742  .00010359  00000+0  37920-3 0  9990", "line2": "2 28220  97.8940  51.8720 0005439 312.2970  47.7806 15.28236562183083"}}, "geometry": {"type": "Point", "coordinates": [53.135320314528954, -2.6090485038945967]}}, {"type": "Feature", "properties": {"norad_id": 28376, "name": "AURA", "group": "resource", "lat": 80.19848367839431, "lon": -116.65103410924543, "alt_km": 681.7634834593482, "timestamp": "2025-12-16T23:36:35.841351+00:00", "meta": {"OBJECT_NAME": "AURA", "OBJECT_ID": "2004-026A", "EPOCH": "2025-12-16T08:25:46.932096", "MEAN_MOTION": 14.60955425, "ECCENTRICITY": 0.00013004, "INCLINATION": 98.3188, "RA_OF_ASC_NODE": 300.5946, "ARG_OF_PERICENTER": 93.5276, "MEAN_ANOMALY": 266.6073, "EPHEMERIS_TYPE": 0, "CLASSIFICATION_TYPE": "U", "NORAD_CAT_ID": 28376, "ELEMENT_SET_NO": 999, "REV_AT_EPOCH": 13951, "BSTAR": 0.00021650716, "MEAN_MOTION_DOT": 1.013e-05, "MEAN_MOTION_DDOT": 0}, "tle": {"line1": "1 28376U 04026A   25350.35123764  .00001013  00000+0  21651-3 0  9996", "line2": "2 28376  98.3188 300.5946 0001300  93.5276 266.6073 14.60955425139518"}}, "geometry": {"type": "Point", "coordinates": [-116.65103410924543, 80.19848367839431]}}]}